{
  "norad_id": 55932,
  "name": "STARLINK-5848",
  "history": [
    {
      "epoch": "2026-03-28T18:06:54.144576Z",
      "apogee_km": 574.1785450773214,
      "perigee_km": 569.9315607214758,
      "latitude_deg": 4.261625027390096e-06,
      "longitude_deg": 118.29700500902638,
      "height_km": 574.5149271903296,
      "semi_major_axis_km": 6950.192052899398,
      "eccentricity": 0.00030553,
      "inclination_deg": 70.0003,
      "raan_deg": 216.1933,
      "arg_perigee_deg": 269.1274,
      "mean_anomaly_deg": 90.9535,
      "mean_motion_rev_day": 14.98330271
    },
    {
      "epoch": "2026-03-29T02:07:34.447296Z",
      "apogee_km": 574.1849330022615,
      "perigee_km": 569.9272447160265,
      "latitude_deg": -7.943185660765728e-06,
      "longitude_deg": -3.041835555455777,
      "height_km": 574.5200136926206,
      "semi_major_axis_km": 6950.193088859143,
      "eccentricity": 0.0003063,
      "inclination_deg": 70.0003,
      "raan_deg": 215.3514,
      "arg_perigee_deg": 269.0208,
      "mean_anomaly_deg": 91.06,
      "mean_motion_rev_day": 14.98329936
    },
    {
      "epoch": "2026-03-30T02:09:35.365824Z",
      "apogee_km": 574.1953540829154,
      "perigee_km": 569.9195944423491,
      "latitude_deg": 4.068784834329997e-05,
      "longitude_deg": -7.057368991535014,
      "height_km": 574.5123710393443,
      "semi_major_axis_km": 6950.194474262632,
      "eccentricity": 0.0003076,
      "inclination_deg": 70.0003,
      "raan_deg": 212.8267,
      "arg_perigee_deg": 269.2671,
      "mean_anomaly_deg": 90.8136,
      "mean_motion_rev_day": 14.98329488
    },
    {
      "epoch": "2026-03-30T02:09:35.366688Z",
      "apogee_km": 574.195284580971,
      "perigee_km": 569.9196639442935,
      "latitude_deg": 3.963736945720684e-05,
      "longitude_deg": -7.057372981658442,
      "height_km": 574.5123701472714,
      "semi_major_axis_km": 6950.194474262632,
      "eccentricity": 0.00030759,
      "inclination_deg": 70.0003,
      "raan_deg": 212.8267,
      "arg_perigee_deg": 269.2671,
      "mean_anomaly_deg": 90.8136,
      "mean_motion_rev_day": 14.98329488
    },
    {
      "epoch": "2026-03-30T14:58:39.841536Z",
      "apogee_km": 574.1997132725974,
      "perigee_km": 569.9031067975138,
      "latitude_deg": 1.732607405727315e-05,
      "longitude_deg": 158.8017615141723,
      "height_km": 574.4698899102328,
      "semi_major_axis_km": 6950.188410035055,
      "eccentricity": 0.0003091,
      "inclination_deg": 70.0002,
      "raan_deg": 211.4809,
      "arg_perigee_deg": 270.2421,
      "mean_anomaly_deg": 89.8384,
      "mean_motion_rev_day": 14.98331449
    },
    {
      "epoch": "2026-03-30T18:10:55.870176Z",
      "apogee_km": 574.1796810671376,
      "perigee_km": 569.916298590676,
      "latitude_deg": -5.2544808396151665e-05,
      "longitude_deg": 110.26654819303722,
      "height_km": 574.4700066407395,
      "semi_major_axis_km": 6950.1849898289065,
      "eccentricity": 0.00030671,
      "inclination_deg": 70.0003,
      "raan_deg": 211.1441,
      "arg_perigee_deg": 270.1487,
      "mean_anomaly_deg": 89.932,
      "mean_motion_rev_day": 14.98332555
    }
  ]
}